[{"OBJECT_NAME":"HAWK-A","OBJECT_ID":"2018-099H","EPOCH":"2026-03-09T16:13:51.062880","MEAN_MOTION":15.23231043,"ECCENTRICITY":0.00342596,"INCLINATION":97.4051,"RA_OF_ASC_NODE":122.2425,"ARG_OF_PERICENTER":275.5523,"MEAN_ANOMALY":84.1807,"EPHEMERIS_TYPE":0,"CLASSIFICATION_TYPE":"U","NORAD_CAT_ID":43765,"ELEMENT_SET_NO":999,"REV_AT_EPOCH":39794,"BSTAR":0.00036104215,"MEAN_MOTION_DOT":8.617e-5,"MEAN_MOTION_DDOT":0},{"OBJECT_NAME":"STARLINK-32154","OBJECT_ID":"2024-131X","EPOCH":"2026-03-09T22:57:34.881408","MEAN_MOTION":15.30189323,"ECCENTRICITY":0.0001341,"INCLINATION":53.1609,"RA_OF_ASC_NODE":50.8892,"ARG_OF_PERICENTER":79.5348,"MEAN_ANOMALY":280.5804,"EPHEMERIS_TYPE":0,"CLASSIFICATION_TYPE":"U","NORAD_CAT_ID":60276,"ELEMENT_SET_NO":999,"REV_AT_EPOCH":9176,"BSTAR":6.3718041e-5,"MEAN_MOTION_DOT":1.528e-5,"MEAN_MOTION_DDOT":0}]
